[
    {
        "OBJECT_NAME": "NAVSTAR 29 (USA 87)",
        "OBJECT_ID": "1992-089A",
        "EPOCH": "2025-02-28T10:42:14.725728",
        "MEAN_MOTION": 1.88246602,
        "ECCENTRICITY": 0.0070238,
        "INCLINATION": 54.9173,
        "RA_OF_ASC_NODE": 144.6927,
        "ARG_OF_PERICENTER": 73.9662,
        "MEAN_ANOMALY": 281.9848,
        "EPHEMERIS_TYPE": 0,
        "CLASSIFICATION_TYPE": "U",
        "NORAD_CAT_ID": 22275,
        "ELEMENT_SET_NO": 999,
        "REV_AT_EPOCH": 22795,
        "BSTAR": 0,
        "MEAN_MOTION_DOT": 3.1e-07,
        "MEAN_MOTION_DDOT": 0
    },
    {
        "OBJECT_NAME": "NAVSTAR 30 (USA 88)",
        "OBJECT_ID": "1993-007A",
        "EPOCH": "2025-03-01T03:23:38.808096",
        "MEAN_MOTION": 1.88094918,
        "ECCENTRICITY": 0.0027714,
        "INCLINATION": 53.5604,
        "RA_OF_ASC_NODE": 260.1218,
        "ARG_OF_PERICENTER": 36.1242,
        "MEAN_ANOMALY": 142.594,
        "EPHEMERIS_TYPE": 0,
        "CLASSIFICATION_TYPE": "U",
        "NORAD_CAT_ID": 22446,
        "ELEMENT_SET_NO": 999,
        "REV_AT_EPOCH": 22510,
        "BSTAR": 0,
        "MEAN_MOTION_DOT": 3.9e-07,
        "MEAN_MOTION_DDOT": 0
    },
    {
        "OBJECT_NAME": "NAVSTAR 31 (USA 90)",
        "OBJECT_ID": "1993-017A",
        "EPOCH": "2025-03-01T13:17:38.447808",
        "MEAN_MOTION": 1.88946177,
        "ECCENTRICITY": 0.0002392,
        "INCLINATION": 54.5551,
        "RA_OF_ASC_NODE": 315.1666,
        "ARG_OF_PERICENTER": 71.7486,
        "MEAN_ANOMALY": 110.4414,
        "EPHEMERIS_TYPE": 0,
        "CLASSIFICATION_TYPE": "U",
        "NORAD_CAT_ID": 22581,
        "ELEMENT_SET_NO": 999,
        "REV_AT_EPOCH": 22573,
        "BSTAR": 0,
        "MEAN_MOTION_DOT": -4.7e-07,
        "MEAN_MOTION_DDOT": 0
    },
    {
        "OBJECT_NAME": "NAVSTAR 34 (USA 94)",
        "OBJECT_ID": "1993-054A",
        "EPOCH": "2025-03-01T02:00:38.705184",
        "MEAN_MOTION": 1.89129614,
        "ECCENTRICITY": 0.0050589,
        "INCLINATION": 53.4507,
        "RA_OF_ASC_NODE": 234.9283,
        "ARG_OF_PERICENTER": 246.1684,
        "MEAN_ANOMALY": 300.3121,
        "EPHEMERIS_TYPE": 0,
        "CLASSIFICATION_TYPE": "U",
        "NORAD_CAT_ID": 22779,
        "ELEMENT_SET_NO": 999,
        "REV_AT_EPOCH": 22707,
        "BSTAR": 0,
        "MEAN_MOTION_DOT": 4.7e-07,
        "MEAN_MOTION_DDOT": 0
    },
    {
        "OBJECT_NAME": "NAVSTAR 35 (USA 96)",
        "OBJECT_ID": "1993-068A",
        "EPOCH": "2025-03-01T12:07:15.674592",
        "MEAN_MOTION": 1.88540689,
        "ECCENTRICITY": 0.0007346,
        "INCLINATION": 55.5664,
        "RA_OF_ASC_NODE": 353.7897,
        "ARG_OF_PERICENTER": 120.5361,
        "MEAN_ANOMALY": 62.5323,
        "EPHEMERIS_TYPE": 0,
        "CLASSIFICATION_TYPE": "U",
        "NORAD_CAT_ID": 22877,
        "ELEMENT_SET_NO": 999,
        "REV_AT_EPOCH": 22754,
        "BSTAR": 0,
        "MEAN_MOTION_DOT": -8.6e-07,
        "MEAN_MOTION_DDOT": 0
    },
    {
        "OBJECT_NAME": "NAVSTAR 36 (USA 100)",
        "OBJECT_ID": "1994-016A",
        "EPOCH": "2025-03-01T06:58:15.949632",
        "MEAN_MOTION": 1.86674527,
        "ECCENTRICITY": 0.0032523,
        "INCLINATION": 53.5427,
        "RA_OF_ASC_NODE": 290.9721,
        "ARG_OF_PERICENTER": 209.7381,
        "MEAN_ANOMALY": 2.2777,
        "EPHEMERIS_TYPE": 0,
        "CLASSIFICATION_TYPE": "U",
        "NORAD_CAT_ID": 23027,
        "ELEMENT_SET_NO": 999,
        "REV_AT_EPOCH": 22439,
        "BSTAR": 0,
        "MEAN_MOTION_DOT": -4e-08,
        "MEAN_MOTION_DDOT": 0
    },
    {
        "OBJECT_NAME": "NAVSTAR 37 (USA 117)",
        "OBJECT_ID": "1996-019A",
        "EPOCH": "2025-03-03T14:55:31.226880",
        "MEAN_MOTION": 1.94619002,
        "ECCENTRICITY": 0.0009084,
        "INCLINATION": 53.2067,
        "RA_OF_ASC_NODE": 283.7889,
        "ARG_OF_PERICENTER": 16.7075,
        "MEAN_ANOMALY": 214.823,
        "EPHEMERIS_TYPE": 0,
        "CLASSIFICATION_TYPE": "U",
        "NORAD_CAT_ID": 23833,
        "ELEMENT_SET_NO": 999,
        "REV_AT_EPOCH": 20974,
        "BSTAR": 0,
        "MEAN_MOTION_DOT": -2e-08,
        "MEAN_MOTION_DDOT": 0
    },
    {
        "OBJECT_NAME": "NAVSTAR 38 (USA 126)",
        "OBJECT_ID": "1996-041A",
        "EPOCH": "2025-03-03T08:43:00.209568",
        "MEAN_MOTION": 1.88695566,
        "ECCENTRICITY": 0.0060036,
        "INCLINATION": 55.6024,
        "RA_OF_ASC_NODE": 62.9,
        "ARG_OF_PERICENTER": 101.8994,
        "MEAN_ANOMALY": 16.7955,
        "EPHEMERIS_TYPE": 0,
        "CLASSIFICATION_TYPE": "U",
        "NORAD_CAT_ID": 23953,
        "ELEMENT_SET_NO": 999,
        "REV_AT_EPOCH": 20590,
        "BSTAR": 0,
        "MEAN_MOTION_DOT": -2e-07,
        "MEAN_MOTION_DDOT": 0
    },
    {
        "OBJECT_NAME": "NAVSTAR 39 (USA 128)",
        "OBJECT_ID": "1996-056A",
        "EPOCH": "2025-03-02T13:22:44.715936",
        "MEAN_MOTION": 1.86499068,
        "ECCENTRICITY": 0.0027569,
        "INCLINATION": 53.9654,
        "RA_OF_ASC_NODE": 253.2781,
        "ARG_OF_PERICENTER": 206.5962,
        "MEAN_ANOMALY": 330.3047,
        "EPHEMERIS_TYPE": 0,
        "CLASSIFICATION_TYPE": "U",
        "NORAD_CAT_ID": 24320,
        "ELEMENT_SET_NO": 999,
        "REV_AT_EPOCH": 20171,
        "BSTAR": 0,
        "MEAN_MOTION_DOT": 4.3e-07,
        "MEAN_MOTION_DDOT": 0
    },
    {
        "OBJECT_NAME": "NAVSTAR 43 (USA 132)",
        "OBJECT_ID": "1997-035A",
        "EPOCH": "2025-03-03T12:58:47.402688",
        "MEAN_MOTION": 2.0056247,
        "ECCENTRICITY": 0.0087171,
        "INCLINATION": 55.7619,
        "RA_OF_ASC_NODE": 116.9861,
        "ARG_OF_PERICENTER": 54.01,
        "MEAN_ANOMALY": 306.8731,
        "EPHEMERIS_TYPE": 0,
        "CLASSIFICATION_TYPE": "U",
        "NORAD_CAT_ID": 24876,
        "ELEMENT_SET_NO": 999,
        "REV_AT_EPOCH": 20231,
        "BSTAR": 0,
        "MEAN_MOTION_DOT": 1.5e-07,
        "MEAN_MOTION_DDOT": 0
    },
    {
        "OBJECT_NAME": "NAVSTAR 44 (USA 135)",
        "OBJECT_ID": "1997-067A",
        "EPOCH": "2025-02-25T15:12:27.709920",
        "MEAN_MOTION": 1.88437622,
        "ECCENTRICITY": 0.0019347,
        "INCLINATION": 55.6029,
        "RA_OF_ASC_NODE": 189.5108,
        "ARG_OF_PERICENTER": 254.9985,
        "MEAN_ANOMALY": 194.0621,
        "EPHEMERIS_TYPE": 0,
        "CLASSIFICATION_TYPE": "U",
        "NORAD_CAT_ID": 25030,
        "ELEMENT_SET_NO": 999,
        "REV_AT_EPOCH": 19771,
        "BSTAR": 0,
        "MEAN_MOTION_DOT": 2e-07,
        "MEAN_MOTION_DDOT": 0
    }
]